 Automated mail xmit by MAIL_REQUEST, PID=   3657 Sat Apr 12 04:59:53 2014
++++++++++++++++++++++++++++++++ (part 1 of 1)  
++++++++++++++++++++++++++++++++ +++++++++++++++++++++++++++++++

*******************************************************************************
 Revised: Dec 02, 2013           Callisto / (Jupiter)                       504

 SATELLITE PHYSICAL PROPERTIES:
  Radius (km)             = 2403   +- 5     Density (g cm^-3)   = 1.851 +- .004
  Mass (10^20 kg )        = 1076   +- 1     Geometric Albedo    =  0.20 

 SATELLITE ORBITAL DATA:
  Semi-major axis, a (km) = 1883  (10^3)    Orbital period      = 16.689018 d
  Eccentricity, e         = 0.007           Rotational period   = Synchronous
  Inclination, i  (deg)   = 0.281
*******************************************************************************
 
 
*******************************************************************************
Ephemeris / MAIL_REQUEST Sat Apr 12 04:59:52 2014 Pasadena, USA  / Horizons    
*******************************************************************************
Target body name: Callisto (504)                  {source: JUP310}
Center body name: Sun (10)                        {source: DE-0431LE-0431}
Center-site name: BODY CENTER
*******************************************************************************
Start time      : A.D. 2013-Jan-01 10:00:00.0000 CT 
Stop  time      : A.D. 2014-Jan-01 10:00:00.0000 CT 
Step-size       : 2 steps
*******************************************************************************
Center geodetic : 0.00000000,0.00000000,0.0000000 {E-lon(deg),Lat(deg),Alt(km)} Center cylindric: 0.00000000,0.00000000,0.0000000 {E-lon(deg),Dxy(km),Dz(km)}
Center radii    : 696000.0 x 696000.0 x 696000.0 k{Equator, meridian, pole}    
Output units    : AU-D                                                         
Output format   : 03
Reference frame : ICRF/J2000.0                                                 
Output type     : GEOMETRIC cartesian states
Coordinate systm: Ecliptic and Mean Equinox of Reference Epoch                 
*******************************************************************************
JDCT ,   , X, Y, Z, VX, VY, VZ, LT, RG, RR,
*******************************************************************************
$$SOE
2456293.916666667, A.D. 2013-Jan-01 10:00:00.0000,  1.423869147006650E+00,  4.847129920058535E+00, -5.238234398683671E-02, -2.644989784161959E-03,  3.138146698634161E-03,  2.380520606001770E-04,  2.917912565945863E-02,  5.052208994062465E+00,  2.262854861542191E-03, 2456476.416666667, A.D. 2013-Jul-02 22:00:00.0000,  4.275431223014964E-02,  5.113249978848652E+00, -2.275185571371750E-02, -3.083416994697285E-03, -8.196895982591382E-04,  1.911446465049718E-04,  2.953299364511796E-02,  5.113479336454624E+00, -8.462840669864057E-04, 2456658.916666667, A.D. 2014-Jan-01 10:00:00.0000, -1.341795476459915E+00,  5.008218624577585E+00,  8.586564274256660E-03, -3.698623328977108E-03, -4.515951290964562E-03,  1.284654687669986E-04,  2.994523693390318E-02,  5.184857049263762E+00, -3.404717249947211E-03, $$EOE
*******************************************************************************
Coordinate system description:

  Ecliptic and Mean Equinox of Reference Epoch

    Reference epoch: J2000.0
    xy-plane: plane of the Earth's orbit at the reference epoch
    x-axis  : out along ascending node of instantaneous plane of the Earth's
              orbit and the Earth's mean equator at the reference epoch
    z-axis  : perpendicular to the xy-plane in the directional (+ or -) sense
              of Earth's north pole at the reference epoch.

Symbol meaning [1 au=149597870.700 km, 1 day=86400.0 s]:

    JDCT     Epoch Julian Date, Coordinate Time
      X      x-component of position vector (AU)                               
      Y      y-component of position vector (AU)                               
      Z      z-component of position vector (AU)                               
      VX     x-component of velocity vector (AU/day)                           
      VY     y-component of velocity vector (AU/day)                           
      VZ     z-component of velocity vector (AU/day)                           
      LT     One-way down-leg Newtonian light-time (day)                       
      RG     Range; distance from coordinate center (AU)                       
      RR     Range-rate; radial velocity wrt coord. center (AU/day)            

Geometric states/elements have no aberration corrections applied.

 Computations by ...
     Solar System Dynamics Group, Horizons On-Line Ephemeris System
     4800 Oak Grove Drive, Jet Propulsion Laboratory
     Pasadena, CA  91109   USA
     Information: http://ssd.jpl.nasa.gov/
     Connect    : telnet://ssd.jpl.nasa.gov:6775  (via browser)
                  telnet ssd.jpl.nasa.gov 6775    (via command-line)
     Author     : Jon.Giorgini@jpl.nasa.gov
*******************************************************************************
